{
    "links": {
        "self": "http://www.neowsapp.com/rest/v1/neo/3092418?api_key=iIulBulltgU6a56xZRHN4H3l9WmuAYTsLGpBGhQ2"
    },
    "id": "3092418",
    "neo_reference_id": "3092418",
    "name": "(2001 UO27)",
    "designation": "2001 UO27",
    "nasa_jpl_url": "http://ssd.jpl.nasa.gov/sbdb.cgi?sstr=3092418",
    "absolute_magnitude_h": 19.8,
    "estimated_diameter": {
        "kilometers": {
            "estimated_diameter_min": 0.2914439045,
            "estimated_diameter_max": 0.6516883822
        },
        "meters": {
            "estimated_diameter_min": 291.4439045349,
            "estimated_diameter_max": 651.6883821679
        },
        "miles": {
            "estimated_diameter_min": 0.1810947904,
            "estimated_diameter_max": 0.4049402617
        },
        "feet": {
            "estimated_diameter_min": 956.1808197541,
            "estimated_diameter_max": 2138.0853117517
        }
    },
    "is_potentially_hazardous_asteroid": false,
    "close_approach_data": [
        {
            "close_approach_date": "2001-10-27",
            "close_approach_date_full": "2001-Oct-27 14:16",
            "epoch_date_close_approach": 1004192160000,
            "relative_velocity": {
                "kilometers_per_second": "22.2684714097",
                "kilometers_per_hour": "80166.4970747746",
                "miles_per_hour": "49812.3436962676"
            },
            "miss_distance": {
                "astronomical": "0.3282353382",
                "lunar": "127.6835465598",
                "kilometers": "49103307.453449634",
                "miles": "30511380.4200635892"
            },
            "orbiting_body": "Earth"
        }
    ],
    "orbital_data": {
        "orbit_id": "11",
        "orbit_determination_date": "2017-04-06 09:15:54",
        "first_observation_date": "2001-10-27",
        "last_observation_date": "2001-11-15",
        "data_arc_in_days": 19,
        "observations_used": 23,
        "orbit_uncertainty": "7",
        "minimum_orbit_intersection": ".303722",
        "jupiter_tisserand_invariant": "2.907",
        "epoch_osculation": "2459000.5",
        "eccentricity": ".5200752704490409",
        "semi_major_axis": "2.624545795956221",
        "inclination": "40.36866123338771",
        "ascending_node_longitude": "216.9353627972248",
        "orbital_period": "1553.02933696314",
        "perihelion_distance": "1.259584431318396",
        "perihelion_argument": "153.458323459585",
        "aphelion_distance": "3.989507160594045",
        "perihelion_time": "2458418.714996191872",
        "mean_anomaly": "134.860685748847",
        "mean_motion": ".2318050222437906",
        "equinox": "J2000",
        "orbit_class": {
            "orbit_class_type": "AMO",
            "orbit_class_description": "Near-Earth asteroid orbits similar to that of 1221 Amor",
            "orbit_class_range": "1.017 AU < q (perihelion) < 1.3 AU"
        }
    },
    "is_sentry_object": false
}